ONEWEB-0687             
1 61595U 24188B   25124.91668981 -.00014545  00000+0 -10445-1 0  9996
2 61595  87.3120  89.1044 0004060 279.8520 142.8281 13.97159316  5633
ONEWEB-0688             
1 61596U 24188C   25124.91668981  .00005446  00000+0  38820-2 0  9993
2 61596  87.2906  89.0180 0002450 305.5723  12.8331 13.97185965  5640
ONEWEB-0689             
1 61597U 24188D   25124.85051155  .00000542  00000+0  14939-2 0  9993
2 61597  87.8768 102.4939 0002300  94.2291 265.9100 13.11419552 30934
ONEWEB-0690             
1 61598U 24188E   25124.93698409 -.00006300  00000+0 -17814-1 0  9996
2 61598  87.8818 102.3976 0001585  67.4010 292.7285 13.11451057 31126
ONEWEB-0691             
1 61599U 24188F   25124.85563049  .00000499  00000+0  13719-2 0  9991
2 61599  87.8716 102.4878 0002357  80.5844 279.5550 13.11420772 30964
ONEWEB-0692             
1 61600U 24188G   25124.87598027  .00000312  00000+0  84461-3 0  9997
2 61600  87.8796 102.4995 0001859 115.6406 244.4914 13.11418829 30959
ONEWEB-0693             
1 61601U 24188H   25124.91668981 -.00009874  00000+0 -70448-2 0  9993
2 61601  87.3109  89.1724 0002782 318.2735 300.9394 13.97520343  5621
ONEWEB-0695             
1 61602U 24188J   25124.85221452  .00000556  00000+0  15317-2 0  9995
2 61602  87.8804 102.4846 0002194 103.4850 256.6523 13.11418661 30941
