<?xml version="1.0" encoding="UTF-8"?>
<ndm xmlns:xsi="http://www.w3.org/2001/XMLSchema-instance" xsi:noNamespaceSchemaLocation="https://sanaregistry.org/r/ndmxml_unqualified/ndmxml-2.0.0-master-2.0.xsd">
<omm id="CCSDS_OMM_VERS" version="2.0">
<header><CREATION_DATE/><ORIGINATOR/></header><body><segment><metadata><OBJECT_NAME>ONEWEB-0687</OBJECT_NAME><OBJECT_ID>2024-188B</OBJECT_ID><CENTER_NAME>EARTH</CENTER_NAME><REF_FRAME>TEME</REF_FRAME><TIME_SYSTEM>UTC</TIME_SYSTEM><MEAN_ELEMENT_THEORY>SGP4</MEAN_ELEMENT_THEORY></metadata><data><meanElements><EPOCH>2025-05-04T22:00:01.999584</EPOCH><MEAN_MOTION>13.97159316</MEAN_MOTION><ECCENTRICITY>.000406</ECCENTRICITY><INCLINATION>87.3120</INCLINATION><RA_OF_ASC_NODE>89.1044</RA_OF_ASC_NODE><ARG_OF_PERICENTER>279.8520</ARG_OF_PERICENTER><MEAN_ANOMALY>142.8281</MEAN_ANOMALY></meanElements><tleParameters><EPHEMERIS_TYPE>0</EPHEMERIS_TYPE><CLASSIFICATION_TYPE>U</CLASSIFICATION_TYPE><NORAD_CAT_ID>61595</NORAD_CAT_ID><ELEMENT_SET_NO>999</ELEMENT_SET_NO><REV_AT_EPOCH>563</REV_AT_EPOCH><BSTAR>-.10445E-1</BSTAR><MEAN_MOTION_DOT>-.14545E-3</MEAN_MOTION_DOT><MEAN_MOTION_DDOT>0</MEAN_MOTION_DDOT></tleParameters></data></segment></body></omm>
<omm id="CCSDS_OMM_VERS" version="2.0">
<header><CREATION_DATE/><ORIGINATOR/></header><body><segment><metadata><OBJECT_NAME>ONEWEB-0688</OBJECT_NAME><OBJECT_ID>2024-188C</OBJECT_ID><CENTER_NAME>EARTH</CENTER_NAME><REF_FRAME>TEME</REF_FRAME><TIME_SYSTEM>UTC</TIME_SYSTEM><MEAN_ELEMENT_THEORY>SGP4</MEAN_ELEMENT_THEORY></metadata><data><meanElements><EPOCH>2025-05-04T22:00:01.999584</EPOCH><MEAN_MOTION>13.97185965</MEAN_MOTION><ECCENTRICITY>.000245</ECCENTRICITY><INCLINATION>87.2906</INCLINATION><RA_OF_ASC_NODE>89.0180</RA_OF_ASC_NODE><ARG_OF_PERICENTER>305.5723</ARG_OF_PERICENTER><MEAN_ANOMALY>12.8331</MEAN_ANOMALY></meanElements><tleParameters><EPHEMERIS_TYPE>0</EPHEMERIS_TYPE><CLASSIFICATION_TYPE>U</CLASSIFICATION_TYPE><NORAD_CAT_ID>61596</NORAD_CAT_ID><ELEMENT_SET_NO>999</ELEMENT_SET_NO><REV_AT_EPOCH>564</REV_AT_EPOCH><BSTAR>.3882E-2</BSTAR><MEAN_MOTION_DOT>.5446E-4</MEAN_MOTION_DOT><MEAN_MOTION_DDOT>0</MEAN_MOTION_DDOT></tleParameters></data></segment></body></omm>
<omm id="CCSDS_OMM_VERS" version="2.0">
<header><CREATION_DATE/><ORIGINATOR/></header><body><segment><metadata><OBJECT_NAME>ONEWEB-0689</OBJECT_NAME><OBJECT_ID>2024-188D</OBJECT_ID><CENTER_NAME>EARTH</CENTER_NAME><REF_FRAME>TEME</REF_FRAME><TIME_SYSTEM>UTC</TIME_SYSTEM><MEAN_ELEMENT_THEORY>SGP4</MEAN_ELEMENT_THEORY></metadata><data><meanElements><EPOCH>2025-05-04T20:24:44.197920</EPOCH><MEAN_MOTION>13.11419552</MEAN_MOTION><ECCENTRICITY>.00023</ECCENTRICITY><INCLINATION>87.8768</INCLINATION><RA_OF_ASC_NODE>102.4939</RA_OF_ASC_NODE><ARG_OF_PERICENTER>94.2291</ARG_OF_PERICENTER><MEAN_ANOMALY>265.9100</MEAN_ANOMALY></meanElements><tleParameters><EPHEMERIS_TYPE>0</EPHEMERIS_TYPE><CLASSIFICATION_TYPE>U</CLASSIFICATION_TYPE><NORAD_CAT_ID>61597</NORAD_CAT_ID><ELEMENT_SET_NO>999</ELEMENT_SET_NO><REV_AT_EPOCH>3093</REV_AT_EPOCH><BSTAR>.14939E-2</BSTAR><MEAN_MOTION_DOT>.542E-5</MEAN_MOTION_DOT><MEAN_MOTION_DDOT>0</MEAN_MOTION_DDOT></tleParameters></data></segment></body></omm>
<omm id="CCSDS_OMM_VERS" version="2.0">
<header><CREATION_DATE/><ORIGINATOR/></header><body><segment><metadata><OBJECT_NAME>ONEWEB-0690</OBJECT_NAME><OBJECT_ID>2024-188E</OBJECT_ID><CENTER_NAME>EARTH</CENTER_NAME><REF_FRAME>TEME</REF_FRAME><TIME_SYSTEM>UTC</TIME_SYSTEM><MEAN_ELEMENT_THEORY>SGP4</MEAN_ELEMENT_THEORY></metadata><data><meanElements><EPOCH>2025-05-04T22:29:15.425376</EPOCH><MEAN_MOTION>13.11451057</MEAN_MOTION><ECCENTRICITY>.0001585</ECCENTRICITY><INCLINATION>87.8818</INCLINATION><RA_OF_ASC_NODE>102.3976</RA_OF_ASC_NODE><ARG_OF_PERICENTER>67.4010</ARG_OF_PERICENTER><MEAN_ANOMALY>292.7285</MEAN_ANOMALY></meanElements><tleParameters><EPHEMERIS_TYPE>0</EPHEMERIS_TYPE><CLASSIFICATION_TYPE>U</CLASSIFICATION_TYPE><NORAD_CAT_ID>61598</NORAD_CAT_ID><ELEMENT_SET_NO>999</ELEMENT_SET_NO><REV_AT_EPOCH>3112</REV_AT_EPOCH><BSTAR>-.17814E-1</BSTAR><MEAN_MOTION_DOT>-.63E-4</MEAN_MOTION_DOT><MEAN_MOTION_DDOT>0</MEAN_MOTION_DDOT></tleParameters></data></segment></body></omm>
<omm id="CCSDS_OMM_VERS" version="2.0">
<header><CREATION_DATE/><ORIGINATOR/></header><body><segment><metadata><OBJECT_NAME>ONEWEB-0691</OBJECT_NAME><OBJECT_ID>2024-188F</OBJECT_ID><CENTER_NAME>EARTH</CENTER_NAME><REF_FRAME>TEME</REF_FRAME><TIME_SYSTEM>UTC</TIME_SYSTEM><MEAN_ELEMENT_THEORY>SGP4</MEAN_ELEMENT_THEORY></metadata><data><meanElements><EPOCH>2025-05-04T20:32:06.474336</EPOCH><MEAN_MOTION>13.11420772</MEAN_MOTION><ECCENTRICITY>.0002357</ECCENTRICITY><INCLINATION>87.8716</INCLINATION><RA_OF_ASC_NODE>102.4878</RA_OF_ASC_NODE><ARG_OF_PERICENTER>80.5844</ARG_OF_PERICENTER><MEAN_ANOMALY>279.5550</MEAN_ANOMALY></meanElements><tleParameters><EPHEMERIS_TYPE>0</EPHEMERIS_TYPE><CLASSIFICATION_TYPE>U</CLASSIFICATION_TYPE><NORAD_CAT_ID>61599</NORAD_CAT_ID><ELEMENT_SET_NO>999</ELEMENT_SET_NO><REV_AT_EPOCH>3096</REV_AT_EPOCH><BSTAR>.13719E-2</BSTAR><MEAN_MOTION_DOT>.499E-5</MEAN_MOTION_DOT><MEAN_MOTION_DDOT>0</MEAN_MOTION_DDOT></tleParameters></data></segment></body></omm>
<omm id="CCSDS_OMM_VERS" version="2.0">
<header><CREATION_DATE/><ORIGINATOR/></header><body><segment><metadata><OBJECT_NAME>ONEWEB-0692</OBJECT_NAME><OBJECT_ID>2024-188G</OBJECT_ID><CENTER_NAME>EARTH</CENTER_NAME><REF_FRAME>TEME</REF_FRAME><TIME_SYSTEM>UTC</TIME_SYSTEM><MEAN_ELEMENT_THEORY>SGP4</MEAN_ELEMENT_THEORY></metadata><data><meanElements><EPOCH>2025-05-04T21:01:24.695328</EPOCH><MEAN_MOTION>13.11418829</MEAN_MOTION><ECCENTRICITY>.0001859</ECCENTRICITY><INCLINATION>87.8796</INCLINATION><RA_OF_ASC_NODE>102.4995</RA_OF_ASC_NODE><ARG_OF_PERICENTER>115.6406</ARG_OF_PERICENTER><MEAN_ANOMALY>244.4914</MEAN_ANOMALY></meanElements><tleParameters><EPHEMERIS_TYPE>0</EPHEMERIS_TYPE><CLASSIFICATION_TYPE>U</CLASSIFICATION_TYPE><NORAD_CAT_ID>61600</NORAD_CAT_ID><ELEMENT_SET_NO>999</ELEMENT_SET_NO><REV_AT_EPOCH>3095</REV_AT_EPOCH><BSTAR>.84461E-3</BSTAR><MEAN_MOTION_DOT>.312E-5</MEAN_MOTION_DOT><MEAN_MOTION_DDOT>0</MEAN_MOTION_DDOT></tleParameters></data></segment></body></omm>
<omm id="CCSDS_OMM_VERS" version="2.0">
<header><CREATION_DATE/><ORIGINATOR/></header><body><segment><metadata><OBJECT_NAME>ONEWEB-0693</OBJECT_NAME><OBJECT_ID>2024-188H</OBJECT_ID><CENTER_NAME>EARTH</CENTER_NAME><REF_FRAME>TEME</REF_FRAME><TIME_SYSTEM>UTC</TIME_SYSTEM><MEAN_ELEMENT_THEORY>SGP4</MEAN_ELEMENT_THEORY></metadata><data><meanElements><EPOCH>2025-05-04T22:00:01.999584</EPOCH><MEAN_MOTION>13.97520343</MEAN_MOTION><ECCENTRICITY>.0002782</ECCENTRICITY><INCLINATION>87.3109</INCLINATION><RA_OF_ASC_NODE>89.1724</RA_OF_ASC_NODE><ARG_OF_PERICENTER>318.2735</ARG_OF_PERICENTER><MEAN_ANOMALY>300.9394</MEAN_ANOMALY></meanElements><tleParameters><EPHEMERIS_TYPE>0</EPHEMERIS_TYPE><CLASSIFICATION_TYPE>U</CLASSIFICATION_TYPE><NORAD_CAT_ID>61601</NORAD_CAT_ID><ELEMENT_SET_NO>999</ELEMENT_SET_NO><REV_AT_EPOCH>562</REV_AT_EPOCH><BSTAR>-.70448E-2</BSTAR><MEAN_MOTION_DOT>-.9874E-4</MEAN_MOTION_DOT><MEAN_MOTION_DDOT>0</MEAN_MOTION_DDOT></tleParameters></data></segment></body></omm>
<omm id="CCSDS_OMM_VERS" version="2.0">
<header><CREATION_DATE/><ORIGINATOR/></header><body><segment><metadata><OBJECT_NAME>ONEWEB-0695</OBJECT_NAME><OBJECT_ID>2024-188J</OBJECT_ID><CENTER_NAME>EARTH</CENTER_NAME><REF_FRAME>TEME</REF_FRAME><TIME_SYSTEM>UTC</TIME_SYSTEM><MEAN_ELEMENT_THEORY>SGP4</MEAN_ELEMENT_THEORY></metadata><data><meanElements><EPOCH>2025-05-04T20:27:11.334528</EPOCH><MEAN_MOTION>13.11418661</MEAN_MOTION><ECCENTRICITY>.0002194</ECCENTRICITY><INCLINATION>87.8804</INCLINATION><RA_OF_ASC_NODE>102.4846</RA_OF_ASC_NODE><ARG_OF_PERICENTER>103.4850</ARG_OF_PERICENTER><MEAN_ANOMALY>256.6523</MEAN_ANOMALY></meanElements><tleParameters><EPHEMERIS_TYPE>0</EPHEMERIS_TYPE><CLASSIFICATION_TYPE>U</CLASSIFICATION_TYPE><NORAD_CAT_ID>61602</NORAD_CAT_ID><ELEMENT_SET_NO>999</ELEMENT_SET_NO><REV_AT_EPOCH>3094</REV_AT_EPOCH><BSTAR>.15317E-2</BSTAR><MEAN_MOTION_DOT>.556E-5</MEAN_MOTION_DOT><MEAN_MOTION_DDOT>0</MEAN_MOTION_DDOT></tleParameters></data></segment></body></omm>

</ndm>
